NORAD_CAT_ID,OBJECT_NAME,OBJECT_TYPE,EPOCH,MEAN_MOTION,ECCENTRICITY,INCLINATION,RA_OF_ASC_NODE,ARG_OF_PERICENTER,MEAN_ANOMALY,BSTAR,MEAN_MOTION_DOT,MEAN_MOTION_DDOT,TLE_LINE0,TLE_LINE1,TLE_LINE2,SEMIMAJOR_AXIS,PERIOD,APOGEE,PERIGEE,DECAYED
52273.0,STARLINK-3782,PAYLOAD,2023-10-12 18:15:26,15.07212857,0.0001356,53.2172,84.9508,80.1601,279.9543,0.00026314,3.725e-05,0.0,0 STARLINK-3782,1 52273U 22041N   23285.76072648  .00003725  00000-0  26314-3 0  9994,2 52273  53.2172  84.9508 0001356  80.1601 279.9543 15.07212857 81811,6922.858,95.541,545.662,543.785,0.0
52273.0,STARLINK-3782,PAYLOAD,2023-10-13 03:48:22,15.07209689,0.0001385,53.2171,83.1673,91.5871,268.5279,0.00018653,2.557e-05,0.0,0 STARLINK-3782,1 52273U 22041N   23286.15859815  .00002557  00000-0  18653-3 0  9996,2 52273  53.2171  83.1673 0001385  91.5871 268.5279 15.07209689 83092,6922.868,95.541,545.692,543.774,0.0
52273.0,STARLINK-3782,PAYLOAD,2023-10-13 14:56:48,15.07208043,0.0001545,53.2178,81.0914,87.2398,272.877,0.00019314,2.658e-05,0.0,0 STARLINK-3782,1 52273U 22041N   23286.62278429  .00002658  00000-0  19314-3 0  9991,2 52273  53.2178  81.0914 0001545  87.2398 272.8770 15.07208043 81947,6922.873,95.541,545.808,543.669,0.0
52273.0,STARLINK-3782,PAYLOAD,2023-10-13 18:07:47,15.07213228,0.0001371,53.2167,80.4964,88.0111,272.1037,0.00026379,3.735e-05,0.0,0 STARLINK-3782,1 52273U 22041N   23286.75540517  .00003735  00000-0  26379-3 0  9991,2 52273  53.2167  80.4964 0001371  88.0111 272.1037 15.07213228 81964,6922.857,95.541,545.671,543.773,0.0
52273.0,STARLINK-3782,PAYLOAD,2023-10-14 10:02:40,15.07212468,0.0001374,53.2172,77.5267,89.5951,270.5198,0.00020941,2.906e-05,0.0,0 STARLINK-3782,1 52273U 22041N   23287.41852317  .00002906  00000-0  20941-3 0  9997,2 52273  53.2172  77.5267 0001374  89.5951 270.5198 15.07212468 83286,6922.86,95.541,545.676,543.773,0.0
52273.0,STARLINK-3782,PAYLOAD,2023-10-14 14:49:08,15.0721505,0.0001444,53.2163,76.6357,87.7313,272.3844,0.00022877,3.201e-05,0.0,0 STARLINK-3782,1 52273U 22041N   23287.61745755  .00003201  00000-0  22877-3 0  9995,2 52273  53.2163  76.6357 0001444  87.7313 272.3844 15.07215050 82092,6922.852,95.54,545.716,543.717,0.0
52273.0,STARLINK-3782,PAYLOAD,2023-10-14 16:24:37,15.07213922,0.0001365,53.2165,76.3388,86.3145,273.8003,0.00021887,3.051e-05,0.0,0 STARLINK-3782,1 52273U 22041N   23287.68376931  .00003051  00000-0  21887-3 0  9991,2 52273  53.2165  76.3388 0001365  86.3145 273.8003 15.07213922 82106,6922.855,95.541,545.665,543.775,0.0
52273.0,STARLINK-3782,PAYLOAD,2023-10-15 14:41:28,15.07205261,0.0001429,53.217,72.1828,91.1941,268.9214,9.2433e-05,1.124e-05,0.0,0 STARLINK-3782,1 52273U 22041N   23288.61214031  .00001124  00000-0  92433-4 0  9992,2 52273  53.2170  72.1828 0001429  91.1941 268.9214 15.07205261 82245,6922.882,95.541,545.736,543.757,0.0
52273.0,STARLINK-3782,PAYLOAD,2023-10-15 19:27:56,15.07203085,0.0001556,53.2182,71.2887,95.8798,264.237,-8.3175e-06,-4.1e-06,0.0,0 STARLINK-3782,1 52273U 22041N   23288.81107591 -.00000410  00000-0 -83175-5 0  9999,2 52273  53.2182  71.2887 0001556  95.8798 264.2370 15.07203085 83497,6922.888,95.541,545.831,543.676,0.0
52273.0,STARLINK-3782,PAYLOAD,2023-10-16 14:33:49,15.07206524,0.0001592,53.218,67.7253,96.9078,263.2094,3.1823e-05,2.01e-06,0.0,0 STARLINK-3782,1 52273U 22041N   23289.60682009  .00000201  00000-0  31823-4 0  9997,2 52273  53.2180  67.7253 0001592  96.9078 263.2094 15.07206524 82396,6922.878,95.541,545.845,543.641,0.0
52273.0,STARLINK-3782,PAYLOAD,2023-10-16 19:20:17,15.0721031,0.0001546,53.2188,66.8343,98.2891,261.8276,1.2529e-05,-9.3e-07,0.0,0 STARLINK-3782,1 52273U 22041N   23289.80575335 -.00000093  00000-0  12529-4 0  9994,2 52273  53.2188  66.8343 0001546  98.2891 261.8276 15.07210310 82429,6922.866,95.541,545.801,543.661,0.0
52273.0,STARLINK-3782,PAYLOAD,2023-10-17 09:39:41,15.07201472,0.0001654,53.2189,64.1616,100.0061,260.1117,0.00013659,1.796e-05,0.0,0 STARLINK-3782,1 52273U 22041N   23290.40256668  .00001796  00000-0  13659-3 0  9991,2 52273  53.2189  64.1616 0001654 100.0061 260.1117 15.07201472 83735,6922.893,95.541,545.903,543.613,0.0
52273.0,STARLINK-3782,PAYLOAD,2023-10-17 16:01:38,15.07213953,0.0002887,53.2188,62.9753,93.1136,267.0186,0.00027246,3.867e-05,0.0,0 STARLINK-3782,1 52273U 22041N   23290.66780954  .00003867  00000-0  27246-3 0  9997,2 52273  53.2188  62.9753 0002887  93.1136 267.0186 15.07213953 83779,6922.855,95.541,546.719,542.721,0.0
52273.0,STARLINK-3782,PAYLOAD,2023-10-18 01:34:34,15.0720961,0.000103,53.2182,61.1957,82.3283,277.7826,0.00016908,2.292e-05,0.0,0 STARLINK-3782,1 52273U 22041N   23291.06568146  .00002292  00000-0  16908-3 0  9993,2 52273  53.2182  61.1957 0001030  82.3283 277.7826 15.07209610 83833,6922.868,95.541,545.446,544.02,0.0
52273.0,STARLINK-3782,PAYLOAD,2023-10-18 19:04:57,15.07216194,0.0001474,53.2177,57.9275,95.9111,264.2049,-6.5956e-05,-1.288e-05,0.0,0 STARLINK-3782,1 52273U 22041N   23291.79511234 -.00001288  00000-0 -65956-4 0  9993,2 52273  53.2177  57.9275 0001474  95.9111 264.2049 15.07216194 82725,6922.848,95.54,545.734,543.693,0.0
52273.0,STARLINK-3782,PAYLOAD,2023-10-19 01:26:55,15.07211959,0.0001576,53.2197,56.7411,81.0741,279.0429,9.4937e-05,1.162e-05,0.0,0 STARLINK-3782,1 52273U 22041N   23292.06036145  .00001162  00000-0  94937-4 0  9997,2 52273  53.2197  56.7411 0001576  81.0741 279.0429 15.07211959 83983,6922.861,95.541,545.817,543.635,0.0
52273.0,STARLINK-3782,PAYLOAD,2023-10-19 12:35:20,15.07211816,0.0002277,53.22,54.6627,96.3205,263.8046,0.00013546,1.779e-05,0.0,0 STARLINK-3782,1 52273U 22041N   23292.52454473  .00001779  00000-0  13546-3 0  9996,2 52273  53.2200  54.6627 0002277  96.3205 263.8046 15.07211816 82838,6922.862,95.541,546.303,543.15,0.0
52273.0,STARLINK-3782,PAYLOAD,2023-10-19 17:21:48,15.0721303,0.0003715,53.2171,53.7713,102.3454,257.7954,0.00021341,2.967e-05,0.0,0 STARLINK-3782,1 52273U 22041N   23292.72347890  .00002967  00000-0  21341-3 0  9994,2 52273  53.2171  53.7713 0003715 102.3454 257.7954 15.07213030 82866,6922.858,95.541,547.295,542.151,0.0
52273.0,STARLINK-3782,PAYLOAD,2023-10-20 01:19:15,15.07203621,0.000144,53.2195,52.2875,84.8254,275.2902,2.8108e-05,1.44e-06,0.0,0 STARLINK-3782,1 52273U 22041N   23293.05504076  .00000144  00000-0  28108-4 0  9996,2 52273  53.2195  52.2875 0001440  84.8254 275.2902 15.07203621 84135,6922.887,95.541,545.749,543.755,0.0
52273.0,STARLINK-3782,PAYLOAD,2023-10-20 12:27:41,15.07198676,0.0002095,53.2179,50.2097,87.6734,272.4497,-4.0437e-05,-8.99e-06,0.0,0 STARLINK-3782,1 52273U 22041N   23293.51923049 -.00000899  00000-0 -40437-4 0  9990,2 52273  53.2179  50.2097 0002095  87.6734 272.4497 15.07198676 84201,6922.902,95.541,546.217,543.316,0.0
52273.0,STARLINK-3782,PAYLOAD,2023-10-21 12:20:01,15.07208576,0.0001408,53.2169,45.7566,87.6046,272.5107,0.00013714,1.805e-05,0.0,0 STARLINK-3782,1 52273U 22041N   23294.51390488  .00001805  00000-0  13714-3 0  9999,2 52273  53.2169  45.7566 0001408  87.6046 272.5107 15.07208576 84359,6922.871,95.541,545.711,543.762,0.0
52273.0,STARLINK-3782,PAYLOAD,2023-10-21 17:06:28,15.0721942,0.0001659,53.2162,44.8648,90.0786,270.0396,0.00023966,3.368e-05,0.0,0 STARLINK-3782,1 52273U 22041N   23294.71283537  .00003368  00000-0  23966-3 0  9993,2 52273  53.2162  44.8648 0001659  90.0786 270.0396 15.07219420 84386,6922.838,95.54,545.852,543.555,0.0
52273.0,STARLINK-3782,PAYLOAD,2023-10-22 01:03:56,15.07201655,0.0001362,53.2177,43.3806,99.6792,260.4353,0.00012888,1.679e-05,0.0,0 STARLINK-3782,1 52273U 22041N   23295.04440292  .00001679  00000-0  12888-3 0  9997,2 52273  53.2177  43.3806 0001362  99.6792 260.4353 15.07201655 84438,6922.893,95.541,545.701,543.815,0.0
52273.0,STARLINK-3782,PAYLOAD,2023-10-22 13:47:51,15.07201337,0.000137,53.2173,41.0054,93.1831,266.9317,0.00020732,2.873e-05,0.0,0 STARLINK-3782,1 52273U 22041N   23295.57490254  .00002873  00000-0  20732-3 0  9992,2 52273  53.2173  41.0054 0001370  93.1831 266.9317 15.07201337 83297,6922.894,95.541,545.707,543.81,0.0
52273.0,STARLINK-3782,PAYLOAD,2023-10-23 12:04:42,15.07208381,0.0001517,53.2179,36.8465,91.6326,268.4839,7.2965e-05,8.27e-06,0.0,0 STARLINK-3782,1 52273U 22041N   23296.50326740  .00000827  00000-0  72965-4 0  9997,2 52273  53.2179  36.8465 0001517  91.6326 268.4839 15.07208381 84659,6922.872,95.541,545.787,543.687,0.0
52273.0,STARLINK-3782,PAYLOAD,2023-10-24 13:32:30,15.07242311,0.0001796,53.2179,32.0954,105.6738,254.4451,0.00067936,0.00010083,0.0,0 STARLINK-3782,1 52273U 22041N   23297.56424084  .00010083  00000-0  67936-3 0  9990,2 52273  53.2179  32.0954 0001796 105.6738 254.4451 15.07242311 83590,6922.768,95.539,545.877,543.39,0.0
52273.0,STARLINK-3782,PAYLOAD,2023-10-25 11:49:22,15.07209592,0.0001318,53.2179,27.9399,94.2162,265.898,-3.3496e-06,-3.34e-06,0.0,0 STARLINK-3782,1 52273U 22041N   23298.49262248 -.00000334  00000-0 -33496-5 0  9991,2 52273  53.2179  27.9399 0001318  94.2162 265.8980 15.07209592 84958,6922.868,95.541,545.646,543.821,0.0
52273.0,STARLINK-3782,PAYLOAD,2023-10-26 13:17:12,15.07210131,0.0001453,53.2176,23.1906,83.788,276.3277,0.00010014,1.241e-05,0.0,0 STARLINK-3782,1 52273U 22041N   23299.55361481  .00001241  00000-0  10014-3 0  9993,2 52273  53.2176  23.1906 0001453  83.7880 276.3277 15.07210131 83896,6922.867,95.541,545.738,543.726,0.0
52273.0,STARLINK-3782,PAYLOAD,2023-10-27 11:34:02,15.072252,0.0001418,53.2184,19.0321,101.9101,258.2049,0.00042153,6.142e-05,0.0,0 STARLINK-3782,1 52273U 22041N   23300.48197173  .00006142  00000-0  42153-3 0  9997,2 52273  53.2184  19.0321 0001418 101.9101 258.2049 15.07225200 85251,6922.821,95.54,545.667,543.704,0.0
52273.0,STARLINK-3782,PAYLOAD,2023-10-27 22:42:28,15.07211907,0.0001305,53.218,16.9529,84.0134,276.1006,0.00012002,1.544e-05,0.0,0 STARLINK-3782,1 52273U 22041N   23300.94615820  .00001544  00000-0  12002-3 0  9993,2 52273  53.2180  16.9529 0001305  84.0134 276.1006 15.07211907 85324,6922.861,95.541,545.63,543.823,0.0
